{
  "type": "FeatureCollection",
  "features": [
    {
      "type": "Feature",
      "properties": {
        "norad_id": 30572,
        "name": "FENGYUN 1C DEB",
        "group": "fengyun-1c-debris",
        "lat": 54.863030075700614,
        "lon": -141.7889087175304,
        "alt_km": 869.7173145598545,
        "timestamp": "2025-12-22T04:03:39.446502+00:00",
        "meta_object_name": "FENGYUN 1C DEB",
        "meta_object_id": "1999-025ALN",
        "meta_epoch": "2025-12-21T14:25:38.445888",
        "meta_mean_motion": 14.08929556,
        "meta_eccentricity": 0.0021029,
        "meta_inclination": 98.7709,
        "meta_ra_of_asc_node": 24.9865,
        "meta_arg_of_pericenter": 267.36,
        "meta_mean_anomaly": 217.1737,
        "meta_ephemeris_type": 0,
        "meta_classification_type": "U",
        "meta_norad_cat_id": 30572,
        "meta_element_set_no": 999,
        "meta_rev_at_epoch": 96886,
        "meta_bstar": 0.00026157,
        "meta_mean_motion_dot": 4.1e-06,
        "meta_mean_motion_ddot": 0,
        "tle_line1": "1 30572U 99025ALN 25355.60113942  .00000410  00000+0  26157-3 0  9996",
        "tle_line2": "2 30572  98.7709  24.9865 0021029 267.3600 217.1737 14.08929556968865"
      },
      "geometry": {
        "type": "Point",
        "coordinates": [
          -141.7889087175304,
          54.863030075700614
        ]
      }
    },
    {
      "type": "Feature",
      "properties": {
        "norad_id": 30573,
        "name": "FENGYUN 1C DEB",
        "group": "fengyun-1c-debris",
        "lat": -40.50656878691058,
        "lon": -153.7753363404972,
        "alt_km": 794.8767972789174,
        "timestamp": "2025-12-22T04:03:39.446512+00:00",
        "meta_object_name": "FENGYUN 1C DEB",
        "meta_object_id": "1999-025ALP",
        "meta_epoch": "2025-12-21T01:40:17.354784",
        "meta_mean_motion": 14.13889936,
        "meta_eccentricity": 0.00888038,
        "meta_inclination": 99.2258,
        "meta_ra_of_asc_node": 33.0714,
        "meta_arg_of_pericenter": 250.3809,
        "meta_mean_anomaly": 137.4292,
        "meta_ephemeris_type": 0,
        "meta_classification_type": "U",
        "meta_norad_cat_id": 30573,
        "meta_element_set_no": 999,
        "meta_rev_at_epoch": 96315,
        "meta_bstar": 0.0012503793,
        "meta_mean_motion_dot": 2.414e-05,
        "meta_mean_motion_ddot": 0,
        "tle_line1": "1 30573U 99025ALP 25355.06964531  .00002414  00000+0  12504-2 0  9991",
        "tle_line2": "2 30573  99.2258  33.0714 0088803 250.3809 137.4292 14.13889936963151"
      },
      "geometry": {
        "type": "Point",
        "coordinates": [
          -153.7753363404972,
          -40.50656878691058
        ]
      }
    },
    {
      "type": "Feature",
      "properties": {
        "norad_id": 30574,
        "name": "FENGYUN 1C DEB",
        "group": "fengyun-1c-debris",
        "lat": 4.464806840933239,
        "lon": 158.8364971905971,
        "alt_km": 853.3761597536914,
        "timestamp": "2025-12-22T04:03:39.446525+00:00",
        "meta_object_name": "FENGYUN 1C DEB",
        "meta_object_id": "1999-025ALQ",
        "meta_epoch": "2025-12-16T10:20:02.300352",
        "meta_mean_motion": 13.77540272,
        "meta_eccentricity": 0.02195385,
        "meta_inclination": 99.3019,
        "meta_ra_of_asc_node": 153.9483,
        "meta_arg_of_pericenter": 337.7191,
        "meta_mean_anomaly": 21.4533,
        "meta_ephemeris_type": 0,
        "meta_classification_type": "U",
        "meta_norad_cat_id": 30574,
        "meta_element_set_no": 999,
        "meta_rev_at_epoch": 93819,
        "meta_bstar": 0.0019113578,
        "meta_mean_motion_dot": 2.231e-05,
        "meta_mean_motion_ddot": 0,
        "tle_line1": "1 30574U 99025ALQ 25350.43058218  .00002231  00000+0  19114-2 0  9995",
        "tle_line2": "2 30574  99.3019 153.9483 0219538 337.7191  21.4533 13.77540272938190"
      },
      "geometry": {
        "type": "Point",
        "coordinates": [
          158.8364971905971,
          4.464806840933239
        ]
      }
    },
    {
      "type": "Feature",
      "properties": {
        "norad_id": 30575,
        "name": "FENGYUN 1C DEB",
        "group": "fengyun-1c-debris",
        "lat": 76.71950166935963,
        "lon": -49.06792852093242,
        "alt_km": 763.5581271843812,
        "timestamp": "2025-12-22T04:03:39.446535+00:00",
        "meta_object_name": "FENGYUN 1C DEB",
        "meta_object_id": "1999-025ALR",
        "meta_epoch": "2025-12-21T18:17:45.312000",
        "meta_mean_motion": 14.4011297,
        "meta_eccentricity": 0.0054531,
        "meta_inclination": 99.1691,
        "meta_ra_of_asc_node": 87.316,
        "meta_arg_of_pericenter": 210.1777,
        "meta_mean_anomaly": 301.8172,
        "meta_ephemeris_type": 0,
        "meta_classification_type": "U",
        "meta_norad_cat_id": 30575,
        "meta_element_set_no": 999,
        "meta_rev_at_epoch": 98347,
        "meta_bstar": 0.0007707,
        "meta_mean_motion_dot": 2.426e-05,
        "meta_mean_motion_ddot": 0,
        "tle_line1": "1 30575U 99025ALR 25355.76233000  .00002426  00000+0  77070-3 0  9993",
        "tle_line2": "2 30575  99.1691  87.3160 0054531 210.1777 301.8172 14.40112970983477"
      },
      "geometry": {
        "type": "Point",
        "coordinates": [
          -49.06792852093242,
          76.71950166935963
        ]
      }
    },
    {
      "type": "Feature",
      "properties": {
        "norad_id": 30577,
        "name": "FENGYUN 1C DEB",
        "group": "fengyun-1c-debris",
        "lat": -68.72621858191772,
        "lon": -173.47721076642367,
        "alt_km": 841.8487483751815,
        "timestamp": "2025-12-22T04:03:39.446545+00:00",
        "meta_object_name": "FENGYUN 1C DEB",
        "meta_object_id": "1999-025ALT",
        "meta_epoch": "2025-12-21T20:55:01.036128",
        "meta_mean_motion": 14.11159412,
        "meta_eccentricity": 0.0028817,
        "meta_inclination": 98.7695,
        "meta_ra_of_asc_node": 29.5886,
        "meta_arg_of_pericenter": 255.573,
        "meta_mean_anomaly": 283.5961,
        "meta_ephemeris_type": 0,
        "meta_classification_type": "U",
        "meta_norad_cat_id": 30577,
        "meta_element_set_no": 999,
        "meta_rev_at_epoch": 96913,
        "meta_bstar": 0.00039185,
        "meta_mean_motion_dot": 6.65e-06,
        "meta_mean_motion_ddot": 0,
        "tle_line1": "1 30577U 99025ALT 25355.87153977  .00000665  00000+0  39185-3 0  9999",
        "tle_line2": "2 30577  98.7695  29.5886 0028817 255.5730 283.5961 14.11159412969130"
      },
      "geometry": {
        "type": "Point",
        "coordinates": [
          -173.47721076642367,
          -68.72621858191772
        ]
      }
    },
    {
      "type": "Feature",
      "properties": {
        "norad_id": 30579,
        "name": "FENGYUN 1C DEB",
        "group": "fengyun-1c-debris",
        "lat": -73.79515824258306,
        "lon": 168.33614628861582,
        "alt_km": 921.8907751209672,
        "timestamp": "2025-12-22T04:03:39.446555+00:00",
        "meta_object_name": "FENGYUN 1C DEB",
        "meta_object_id": "1999-025ALV",
        "meta_epoch": "2025-12-21T20:51:21.891168",
        "meta_mean_motion": 14.05260798,
        "meta_eccentricity": 0.0053729,
        "meta_inclination": 98.8061,
        "meta_ra_of_asc_node": 20.2798,
        "meta_arg_of_pericenter": 78.3546,
        "meta_mean_anomaly": 100.0802,
        "meta_ephemeris_type": 0,
        "meta_classification_type": "U",
        "meta_norad_cat_id": 30579,
        "meta_element_set_no": 999,
        "meta_rev_at_epoch": 96585,
        "meta_bstar": 0.00016505,
        "meta_mean_motion_dot": 2.28e-06,
        "meta_mean_motion_ddot": 0,
        "tle_line1": "1 30579U 99025ALV 25355.86900337  .00000228  00000+0  16505-3 0  9996",
        "tle_line2": "2 30579  98.8061  20.2798 0053729  78.3546 100.0802 14.05260798965851"
      },
      "geometry": {
        "type": "Point",
        "coordinates": [
          168.33614628861582,
          -73.79515824258306
        ]
      }
    },
    {
      "type": "Feature",
      "properties": {
        "norad_id": 30594,
        "name": "FENGYUN 1C DEB",
        "group": "fengyun-1c-debris",
        "lat": -40.441491439743764,
        "lon": 24.740636877289973,
        "alt_km": 787.6446462380918,
        "timestamp": "2025-12-22T04:03:39.446566+00:00",
        "meta_object_name": "FENGYUN 1C DEB",
        "meta_object_id": "1999-025ALZ",
        "meta_epoch": "2025-12-21T20:13:30.721152",
        "meta_mean_motion": 14.17348432,
        "meta_eccentricity": 0.0193109,
        "meta_inclination": 99.1507,
        "meta_ra_of_asc_node": 212.3007,
        "meta_arg_of_pericenter": 290.4982,
        "meta_mean_anomaly": 67.5559,
        "meta_ephemeris_type": 0,
        "meta_classification_type": "U",
        "meta_norad_cat_id": 30594,
        "meta_element_set_no": 999,
        "meta_rev_at_epoch": 97708,
        "meta_bstar": 0.00015666,
        "meta_mean_motion_dot": 3.3e-06,
        "meta_mean_motion_ddot": 0,
        "tle_line1": "1 30594U 99025ALZ 25355.84271668  .00000330  00000+0  15666-3 0  9990",
        "tle_line2": "2 30594  99.1507 212.3007 0193109 290.4982  67.5559 14.17348432977081"
      },
      "geometry": {
        "type": "Point",
        "coordinates": [
          24.740636877289973,
          -40.441491439743764
        ]
      }
    }
  ]
}